#aV2019  2 20  0  0  0.00000000     288 DD+AD WGS84 FIT  NGA
## 2041 259200.00000000   300.00000000 58534 0.0000000000000
+   31     1  2  3  5  6  7  8  9 10 11 12 13 14 15 16 17 18
+         19 20 21 22 23 24 25 26 27 28 29 30 31 32  0  0  0
+          0  0  0  0  0  0  0  0  0  0  0  0  0  0  0  0  0
+          0  0  0  0  0  0  0  0  0  0  0  0  0  0  0  0  0
+          0  0  0  0  0  0  0  0  0  0  0  0  0  0  0  0  0
++         2  2  2  2  2  2  2  2  2  2  2  2  2  2  2  2  2
++         2  2  2  2  2  2  2  2  2  2  2  2  2  2  0  0  0
++         0  0  0  0  0  0  0  0  0  0  0  0  0  0  0  0  0
++         0  0  0  0  0  0  0  0  0  0  0  0  0  0  0  0  0
++         0  0  0  0  0  0  0  0  0  0  0  0  0  0  0  0  0
%c cc cc ccc ccc cccc cccc cccc cccc ccccc ccccc ccccc ccccc
%c cc cc ccc ccc cccc cccc cccc cccc ccccc ccccc ccccc ccccc
%f  0.0000000  0.000000000  0.00000000000  0.000000000000000
%f  0.0000000  0.000000000  0.00000000000  0.000000000000000
%i    0    0    0    0      0      0      0      0         0
%i    0    0    0    0      0      0      0      0         0
/*      NGA, ST. LOUIS,MO.                                  
/*   EPHEMERIS COMPUTED FROM 2 DAYS OF DATA                 
/*   EPOCHA v3 SMOOTHER                                     
/*   G1762 IERS2010 SATAF SATAPC                            
*  2019  2 20 16  5  0.00000000
P  1 -21594.962376 -12415.101016   9485.645535   -166.831492                    
V  1  -7242.638752  -9980.937610 -28722.285751     -0.070868                    
P  2  11727.903327  21210.746786  11672.587231   -144.845828                    
V  2 -11961.271350  -7367.845722  26626.635951     -0.098142                    
P  3 -14298.166555  -5145.700286  21749.060413    183.793550                    
V  3   7098.032703 -26769.592102  -1590.735691      0.016378                    
P  5   4191.831523  22768.821301 -12951.374165      1.113903                    
V  5  -6307.668797  15324.685335  25330.096547      0.000468                    
P  6    637.977039  18645.291847  18938.583599    271.552727                    
V  6 -17952.153777 -15869.675821  16292.657597     -0.083234                    
P  7 -18428.727801    446.529852 -19038.724537     28.887488                    
V  7 -16354.902828 -18367.882632  14748.432317     -0.072326                    
P  8 -17400.778188  -8069.207905 -18410.413499   -133.475421                    
V  8  22088.245048  -7755.114536 -17243.137387     -0.014063                    
P  9 -25323.251452   7993.697855   -834.150215    455.874927                    
V  9  -1822.705382  -2666.087259  31541.897555     -0.053461                    
P 10  11209.201812 -22766.293331  -7443.343631    112.863056                    
V 10    283.262107   9957.714051 -30000.412624     -0.077741                    
P 11 -24608.216868  -9628.250577  -1165.614393   -657.163678                    
V 11   2383.481575  -4094.568860 -30645.277142      0.061024                    
P 12  12602.126126   7990.799849  21783.875192    266.338481                    
V 12  -9056.041365  26565.846977  -4287.138501     -0.031918                    
P 13   9259.180588  13335.638379 -21145.113968    -74.291728                    
V 13 -26161.025671   4561.737537  -8590.309932      0.013006                    
P 14   7510.986999 -15844.042466  20203.688862    -90.990063                    
V 14  24791.443619  -3655.253443 -12447.759206      0.012468                    
P 15  19994.500709   5975.875310 -16903.078179   -326.975723                    
V 15 -18857.027268   9316.873580 -18914.092126      0.017456                    
P 16  -2491.335825 -21969.391078 -14559.761882    -20.484987                    
V 16   7791.562710 -16670.272353  24533.023836     -0.025055                    
P 17 -16770.607914  14134.690733  15321.856525     12.600143                    
V 17 -18592.524959   2613.163045 -23480.138004      0.056342                    
P 18 -19491.542203 -18153.927729   -732.323016     27.870702                    
V 18   2234.754210  -1964.119235 -31465.151012      0.037662                    
P 19  -8619.249355  14984.152540  19902.156054   -350.379521                    
V 19 -25615.640339   3480.836935 -13420.598676      0.041640                    
P 20  14130.256123 -15963.509924 -15865.451391    522.396220                    
V 20   -183.744205  20258.054640 -20828.608811      0.003772                    
P 21  16049.698778  -4834.337536 -19774.475216   -246.507145                    
V 21  19388.349041  18833.285294  10817.187533      0.072461                    
P 22 -12452.317809 -13288.245856  19585.954400   -649.304233                    
V 22   5975.412701 -23783.068862 -12432.891546     -0.079849                    
P 23 -24982.873564   -101.543000   9908.648741   -196.587968                    
V 23  10800.392197  -5910.995854  27659.317899      0.012985                    
P 24  21845.153115  14480.623634   5129.497662    -62.417079                    
V 24   2866.591714   6790.971526 -30150.766653     -0.004806                    
P 25  15813.339247  -5342.751943  20396.524935   -723.150741                    
V 25  -5725.855148  25780.436482  11335.249785     -0.053712                    
P 26   2580.071480 -25899.185937  -4807.518886    129.662846                    
V 26   4461.331236  -5243.786402  30900.929523      0.102766                    
P 27  -6860.758415 -13433.988590 -21970.990769    -71.418230                    
V 27  26554.345366  -7544.103052  -3408.647427     -0.074545                    
P 28 -13152.611257  21591.892156  -7671.853963    765.002073                    
V 28   1644.303137 -10600.433582 -30168.827776      0.008619                    
P 29  26142.662830  -3128.232414   3450.731224    266.145023                    
V 29  -3892.323200   2878.400214  31896.620950     -0.087205                    
P 30 -10478.182472  11649.898654 -21423.667730    -55.953008                    
V 30 -18773.597346 -19852.764821  -1787.160199     -0.064436                    
P 31  -1145.782513 -19355.640743  17950.369337     57.294263                    
V 31  17211.828046  15305.465294  18042.820974     -0.026934                    
P 32  13789.717358 -15829.031447  16249.833761   -217.267380                    
V 32  20370.782156  -3707.183100 -21058.301492      0.189876                    
EOF
